<?xml version='1.0' encoding='UTF-8'?>
<gpx version="1.1" creator="https://www.komoot.de" xmlns="http://www.topografix.com/GPX/1/1" xmlns:xsi="http://www.w3.org/2001/XMLSchema-instance" xsi:schemaLocation="http://www.topografix.com/GPX/1/1 http://www.topografix.com/GPX/1/1/gpx.xsd">
  <metadata>
    <name>Nur Trail</name>
    <author>
      <link href="https://www.komoot.de">
        <text>komoot</text>
        <type>text/html</type>
      </link>
    </author>
  </metadata>
  <trk>
    <name>Nur Trail</name>
    <trkseg>
      <trkpt lat="48.820618" lon="9.807626">
        <ele>436.591662</ele>
        <time>2026-05-20T09:52:18.895Z</time>
      </trkpt>
      <trkpt lat="48.820663" lon="9.807693">
        <ele>436.591662</ele>
        <time>2026-05-20T09:52:20.290Z</time>
      </trkpt>
      <trkpt lat="48.820719" lon="9.807935">
        <ele>436.591662</ele>
        <time>2026-05-20T09:52:23.975Z</time>
      </trkpt>
      <trkpt lat="48.820767" lon="9.807898">
        <ele>436.591662</ele>
        <time>2026-05-20T09:52:25.123Z</time>
      </trkpt>
      <trkpt lat="48.820857" lon="9.807975">
        <ele>436.591662</ele>
        <time>2026-05-20T09:52:27.324Z</time>
      </trkpt>
      <trkpt lat="48.821013" lon="9.808015">
        <ele>436.591662</ele>
        <time>2026-05-20T09:52:30.654Z</time>
      </trkpt>
      <trkpt lat="48.821143" lon="9.808120">
        <ele>436.591662</ele>
        <time>2026-05-20T09:52:33.678Z</time>
      </trkpt>
      <trkpt lat="48.821303" lon="9.808273">
        <ele>436.591662</ele>
        <time>2026-05-20T09:52:37.530Z</time>
      </trkpt>
      <trkpt lat="48.821422" lon="9.808507">
        <ele>433.536994</ele>
        <time>2026-05-20T09:52:41.443Z</time>
      </trkpt>
      <trkpt lat="48.821526" lon="9.808858">
        <ele>429.209926</ele>
        <time>2026-05-20T09:52:46.468Z</time>
      </trkpt>
      <trkpt lat="48.821690" lon="9.808922">
        <ele>426.318766</ele>
        <time>2026-05-20T09:52:49.821Z</time>
      </trkpt>
      <trkpt lat="48.821767" lon="9.808830">
        <ele>424.645985</ele>
        <time>2026-05-20T09:52:51.758Z</time>
      </trkpt>
      <trkpt lat="48.821844" lon="9.808838">
        <ele>423.328182</ele>
        <time>2026-05-20T09:52:53.277Z</time>
      </trkpt>
      <trkpt lat="48.821908" lon="9.809039">
        <ele>420.818208</ele>
        <time>2026-05-20T09:52:56.175Z</time>
      </trkpt>
      <trkpt lat="48.822028" lon="9.809088">
        <ele>418.696522</ele>
        <time>2026-05-20T09:52:58.611Z</time>
      </trkpt>
      <trkpt lat="48.822256" lon="9.808963">
        <ele>414.557698</ele>
        <time>2026-05-20T09:53:03.396Z</time>
      </trkpt>
      <trkpt lat="48.822293" lon="9.809043">
        <ele>413.458642</ele>
        <time>2026-05-20T09:53:04.676Z</time>
      </trkpt>
      <trkpt lat="48.822322" lon="9.809254">
        <ele>411.035503</ele>
        <time>2026-05-20T09:53:07.471Z</time>
      </trkpt>
      <trkpt lat="48.822305" lon="9.810208">
        <ele>405.880859</ele>
        <time>2026-05-20T09:53:19.930Z</time>
      </trkpt>
      <trkpt lat="48.822359" lon="9.810345">
        <ele>405.880859</ele>
        <time>2026-05-20T09:53:22.032Z</time>
      </trkpt>
      <trkpt lat="48.822457" lon="9.810351">
        <ele>405.880859</ele>
        <time>2026-05-20T09:53:23.982Z</time>
      </trkpt>
      <trkpt lat="48.822493" lon="9.810411">
        <ele>405.880859</ele>
        <time>2026-05-20T09:53:25.056Z</time>
      </trkpt>
      <trkpt lat="48.822460" lon="9.810604">
        <ele>405.880859</ele>
        <time>2026-05-20T09:53:27.701Z</time>
      </trkpt>
      <trkpt lat="48.822623" lon="9.810972">
        <ele>405.880859</ele>
        <time>2026-05-20T09:53:33.656Z</time>
      </trkpt>
      <trkpt lat="48.822732" lon="9.810882">
        <ele>405.880859</ele>
        <time>2026-05-20T09:53:36.220Z</time>
      </trkpt>
      <trkpt lat="48.822777" lon="9.811203">
        <ele>405.880859</ele>
        <time>2026-05-20T09:53:40.789Z</time>
      </trkpt>
      <trkpt lat="48.822719" lon="9.811358">
        <ele>405.880859</ele>
        <time>2026-05-20T09:53:43.314Z</time>
      </trkpt>
      <trkpt lat="48.822817" lon="9.811549">
        <ele>405.880859</ele>
        <time>2026-05-20T09:53:46.815Z</time>
      </trkpt>
      <trkpt lat="48.822809" lon="9.811631">
        <ele>405.880859</ele>
        <time>2026-05-20T09:53:48.025Z</time>
      </trkpt>
      <trkpt lat="48.822705" lon="9.811665">
        <ele>405.880859</ele>
        <time>2026-05-20T09:53:50.424Z</time>
      </trkpt>
      <trkpt lat="48.822729" lon="9.811704">
        <ele>405.880859</ele>
        <time>2026-05-20T09:53:51.220Z</time>
      </trkpt>
      <trkpt lat="48.822795" lon="9.811724">
        <ele>405.880859</ele>
        <time>2026-05-20T09:53:52.765Z</time>
      </trkpt>
    </trkseg>
  </trk>
</gpx>